QIANFAN-86              
1 63172U 25046P   26063.17418388  .00000202  00000+0  29509-3 0  9994
2 63172  88.9765 311.3750 0009272 257.3025 102.7090 13.51001074 58541
QIANFAN-87              
1 63173U 25046Q   26063.14547164  .00000205  00000+0  29825-3 0  9991
2 63173  88.9761 311.4864 0009949 251.5408 108.4662 13.51009376 58470
QIANFAN-88              
1 63174U 25046R   26063.16178284  .00000215  00000+0  31404-3 0  9994
2 63174  88.9764 311.4415 0010357 261.2041  98.7937 13.50997776 58501
QIANFAN-89              
1 63175U 25046S   26063.12491981  .00000206  00000+0  30039-3 0  9996
2 63175  88.9765 311.6343 0014825 250.2905 109.6647 13.51008288 58395
QIANFAN-90              
1 63176U 25046T   26063.15375515  .00000226  00000+0  33125-3 0  9995
2 63176  88.9764 311.6038 0011777 248.2610 111.7287 13.51008133 58415
QIANFAN-91              
1 66033U 25233A   26063.11222776  .00000051  00000+0  60233-4 0  9991
2 66033  88.9927  53.8144 0001915  92.7693 267.3677 13.51004485 18996
QIANFAN-92              
1 66034U 25233B   26063.12039598  .00000063  00000+0  79631-4 0  9996
2 66034  88.9911  53.8025 0001942  85.9440 274.1933 13.51005953 18994
QIANFAN-93              
1 66035U 25233C   26063.12862782  .00000024  00000+0  19031-4 0  9991
2 66035  88.9938  53.8251 0001897  90.7984 269.3385 13.51004824 18994
QIANFAN-94              
1 66036U 25233D   26063.11611109  .00000039  00000+0  42086-4 0  9998
2 66036  88.9934  53.7332 0002033  88.5205 271.6179 13.50991859 19040
QIANFAN-95              
1 66037U 25233E   26063.12439212  .00000063  00000+0  79293-4 0  9990
2 66037  88.9932  53.2786 0002036  93.9578 266.1806 13.51015276 19297
QIANFAN-96              
1 66038U 25233F   26063.14924589  .00000045  00000+0  50731-4 0  9995
2 66038  88.9929  53.8222 0001922  94.7047 265.4323 13.51004627 18998
QIANFAN-97              
1 66039U 25233G   26063.13277281  .00000024  00000+0  18267-4 0  9990
2 66039  88.9933  53.8044 0001930  92.2129 267.9243 13.51004020 19007
QIANFAN-98              
1 66040U 25233H   26063.14095022  .00000029  00000+0  27025-4 0  9991
2 66040  88.9922  53.5459 0002452  86.1292 274.0140 13.51004431 19143
QIANFAN-99              
1 66041U 25233J   26063.14511240  .00000041  00000+0  44268-4 0  9999
2 66041  88.9933  53.8066 0002321  89.7254 270.4163 13.51004737 19004
QIANFAN-100             
1 66042U 25233K   26063.13685563  .00000061  00000+0  76546-4 0  9995
2 66042  88.9944  53.7226 0001903  91.3993 268.7376 13.51005586 19052
QIANFAN-101             
1 66043U 25233L   26063.09487038  .00000702  00000+0  28358-3 0  9997
2 66043  88.9934  52.6300 0016751 123.4133 236.8666 14.26732495 19645
QIANFAN-102             
1 66044U 25233M   26063.15728426  .00000040  00000+0  43489-4 0  9992
2 66044  88.9931  53.7174 0002084  88.7583 271.3807 13.50992395 19059
