[{"OBJECT_NAME":"QIANFAN-86","OBJECT_ID":"2025-046P","EPOCH":"2026-03-04T04:10:49.487232","MEAN_MOTION":13.51001074,"ECCENTRICITY":0.0009272,"INCLINATION":88.9765,"RA_OF_ASC_NODE":311.375,"ARG_OF_PERICENTER":257.3025,"MEAN_ANOMALY":102.709,"EPHEMERIS_TYPE":0,"CLASSIFICATION_TYPE":"U","NORAD_CAT_ID":63172,"ELEMENT_SET_NO":999,"REV_AT_EPOCH":5854,"BSTAR":0.00029509,"MEAN_MOTION_DOT":2.02e-6,"MEAN_MOTION_DDOT":0},{"OBJECT_NAME":"QIANFAN-87","OBJECT_ID":"2025-046Q","EPOCH":"2026-03-04T03:29:28.749696","MEAN_MOTION":13.51009376,"ECCENTRICITY":0.0009949,"INCLINATION":88.9761,"RA_OF_ASC_NODE":311.4864,"ARG_OF_PERICENTER":251.5408,"MEAN_ANOMALY":108.4662,"EPHEMERIS_TYPE":0,"CLASSIFICATION_TYPE":"U","NORAD_CAT_ID":63173,"ELEMENT_SET_NO":999,"REV_AT_EPOCH":5847,"BSTAR":0.00029825,"MEAN_MOTION_DOT":2.05e-6,"MEAN_MOTION_DDOT":0},{"OBJECT_NAME":"QIANFAN-88","OBJECT_ID":"2025-046R","EPOCH":"2026-03-04T03:52:58.037376","MEAN_MOTION":13.50997776,"ECCENTRICITY":0.0010357,"INCLINATION":88.9764,"RA_OF_ASC_NODE":311.4415,"ARG_OF_PERICENTER":261.2041,"MEAN_ANOMALY":98.7937,"EPHEMERIS_TYPE":0,"CLASSIFICATION_TYPE":"U","NORAD_CAT_ID":63174,"ELEMENT_SET_NO":999,"REV_AT_EPOCH":5850,"BSTAR":0.00031404,"MEAN_MOTION_DOT":2.15e-6,"MEAN_MOTION_DDOT":0},{"OBJECT_NAME":"QIANFAN-89","OBJECT_ID":"2025-046S","EPOCH":"2026-03-04T02:59:53.071584","MEAN_MOTION":13.51008288,"ECCENTRICITY":0.0014825,"INCLINATION":88.9765,"RA_OF_ASC_NODE":311.6343,"ARG_OF_PERICENTER":250.2905,"MEAN_ANOMALY":109.6647,"EPHEMERIS_TYPE":0,"CLASSIFICATION_TYPE":"U","NORAD_CAT_ID":63175,"ELEMENT_SET_NO":999,"REV_AT_EPOCH":5839,"BSTAR":0.00030039,"MEAN_MOTION_DOT":2.06e-6,"MEAN_MOTION_DDOT":0},{"OBJECT_NAME":"QIANFAN-90","OBJECT_ID":"2025-046T","EPOCH":"2026-03-04T03:41:24.444960","MEAN_MOTION":13.51008133,"ECCENTRICITY":0.0011777,"INCLINATION":88.9764,"RA_OF_ASC_NODE":311.6038,"ARG_OF_PERICENTER":248.261,"MEAN_ANOMALY":111.7287,"EPHEMERIS_TYPE":0,"CLASSIFICATION_TYPE":"U","NORAD_CAT_ID":63176,"ELEMENT_SET_NO":999,"REV_AT_EPOCH":5841,"BSTAR":0.00033125,"MEAN_MOTION_DOT":2.26e-6,"MEAN_MOTION_DDOT":0},{"OBJECT_NAME":"QIANFAN-91","OBJECT_ID":"2025-233A","EPOCH":"2026-03-04T02:41:36.478464","MEAN_MOTION":13.51004485,"ECCENTRICITY":0.0001915,"INCLINATION":88.9927,"RA_OF_ASC_NODE":53.8144,"ARG_OF_PERICENTER":92.7693,"MEAN_ANOMALY":267.3677,"EPHEMERIS_TYPE":0,"CLASSIFICATION_TYPE":"U","NORAD_CAT_ID":66033,"ELEMENT_SET_NO":999,"REV_AT_EPOCH":1899,"BSTAR":6.0233e-5,"MEAN_MOTION_DOT":5.1e-7,"MEAN_MOTION_DDOT":0},{"OBJECT_NAME":"QIANFAN-92","OBJECT_ID":"2025-233B","EPOCH":"2026-03-04T02:53:22.212672","MEAN_MOTION":13.51005953,"ECCENTRICITY":0.0001942,"INCLINATION":88.9911,"RA_OF_ASC_NODE":53.8025,"ARG_OF_PERICENTER":85.944,"MEAN_ANOMALY":274.1933,"EPHEMERIS_TYPE":0,"CLASSIFICATION_TYPE":"U","NORAD_CAT_ID":66034,"ELEMENT_SET_NO":999,"REV_AT_EPOCH":1899,"BSTAR":7.9631e-5,"MEAN_MOTION_DOT":6.3e-7,"MEAN_MOTION_DDOT":0},{"OBJECT_NAME":"QIANFAN-93","OBJECT_ID":"2025-233C","EPOCH":"2026-03-04T03:05:13.443648","MEAN_MOTION":13.51004824,"ECCENTRICITY":0.0001897,"INCLINATION":88.9938,"RA_OF_ASC_NODE":53.8251,"ARG_OF_PERICENTER":90.7984,"MEAN_ANOMALY":269.3385,"EPHEMERIS_TYPE":0,"CLASSIFICATION_TYPE":"U","NORAD_CAT_ID":66035,"ELEMENT_SET_NO":999,"REV_AT_EPOCH":1899,"BSTAR":1.9031e-5,"MEAN_MOTION_DOT":2.4e-7,"MEAN_MOTION_DDOT":0},{"OBJECT_NAME":"QIANFAN-94","OBJECT_ID":"2025-233D","EPOCH":"2026-03-04T02:47:11.998176","MEAN_MOTION":13.50991859,"ECCENTRICITY":0.0002033,"INCLINATION":88.9934,"RA_OF_ASC_NODE":53.7332,"ARG_OF_PERICENTER":88.5205,"MEAN_ANOMALY":271.6179,"EPHEMERIS_TYPE":0,"CLASSIFICATION_TYPE":"U","NORAD_CAT_ID":66036,"ELEMENT_SET_NO":999,"REV_AT_EPOCH":1904,"BSTAR":4.2086e-5,"MEAN_MOTION_DOT":3.9e-7,"MEAN_MOTION_DDOT":0},{"OBJECT_NAME":"QIANFAN-95","OBJECT_ID":"2025-233E","EPOCH":"2026-03-04T02:59:07.479168","MEAN_MOTION":13.51015276,"ECCENTRICITY":0.0002036,"INCLINATION":88.9932,"RA_OF_ASC_NODE":53.2786,"ARG_OF_PERICENTER":93.9578,"MEAN_ANOMALY":266.1806,"EPHEMERIS_TYPE":0,"CLASSIFICATION_TYPE":"U","NORAD_CAT_ID":66037,"ELEMENT_SET_NO":999,"REV_AT_EPOCH":1929,"BSTAR":7.9293e-5,"MEAN_MOTION_DOT":6.3e-7,"MEAN_MOTION_DDOT":0},{"OBJECT_NAME":"QIANFAN-96","OBJECT_ID":"2025-233F","EPOCH":"2026-03-04T03:34:54.844896","MEAN_MOTION":13.51004627,"ECCENTRICITY":0.0001922,"INCLINATION":88.9929,"RA_OF_ASC_NODE":53.8222,"ARG_OF_PERICENTER":94.7047,"MEAN_ANOMALY":265.4323,"EPHEMERIS_TYPE":0,"CLASSIFICATION_TYPE":"U","NORAD_CAT_ID":66038,"ELEMENT_SET_NO":999,"REV_AT_EPOCH":1899,"BSTAR":5.0731e-5,"MEAN_MOTION_DOT":4.5e-7,"MEAN_MOTION_DDOT":0},{"OBJECT_NAME":"QIANFAN-97","OBJECT_ID":"2025-233G","EPOCH":"2026-03-04T03:11:11.570784","MEAN_MOTION":13.5100402,"ECCENTRICITY":0.000193,"INCLINATION":88.9933,"RA_OF_ASC_NODE":53.8044,"ARG_OF_PERICENTER":92.2129,"MEAN_ANOMALY":267.9243,"EPHEMERIS_TYPE":0,"CLASSIFICATION_TYPE":"U","NORAD_CAT_ID":66039,"ELEMENT_SET_NO":999,"REV_AT_EPOCH":1900,"BSTAR":1.8267e-5,"MEAN_MOTION_DOT":2.4e-7,"MEAN_MOTION_DDOT":0},{"OBJECT_NAME":"QIANFAN-98","OBJECT_ID":"2025-233H","EPOCH":"2026-03-04T03:22:58.099008","MEAN_MOTION":13.51004431,"ECCENTRICITY":0.0002452,"INCLINATION":88.9922,"RA_OF_ASC_NODE":53.5459,"ARG_OF_PERICENTER":86.1292,"MEAN_ANOMALY":274.014,"EPHEMERIS_TYPE":0,"CLASSIFICATION_TYPE":"U","NORAD_CAT_ID":66040,"ELEMENT_SET_NO":999,"REV_AT_EPOCH":1914,"BSTAR":2.7025e-5,"MEAN_MOTION_DOT":2.9e-7,"MEAN_MOTION_DDOT":0},{"OBJECT_NAME":"QIANFAN-99","OBJECT_ID":"2025-233J","EPOCH":"2026-03-04T03:28:57.711360","MEAN_MOTION":13.51004737,"ECCENTRICITY":0.0002321,"INCLINATION":88.9933,"RA_OF_ASC_NODE":53.8066,"ARG_OF_PERICENTER":89.7254,"MEAN_ANOMALY":270.4163,"EPHEMERIS_TYPE":0,"CLASSIFICATION_TYPE":"U","NORAD_CAT_ID":66041,"ELEMENT_SET_NO":999,"REV_AT_EPOCH":1900,"BSTAR":4.4268e-5,"MEAN_MOTION_DOT":4.1e-7,"MEAN_MOTION_DDOT":0},{"OBJECT_NAME":"QIANFAN-100","OBJECT_ID":"2025-233K","EPOCH":"2026-03-04T03:17:04.326432","MEAN_MOTION":13.51005586,"ECCENTRICITY":0.0001903,"INCLINATION":88.9944,"RA_OF_ASC_NODE":53.7226,"ARG_OF_PERICENTER":91.3993,"MEAN_ANOMALY":268.7376,"EPHEMERIS_TYPE":0,"CLASSIFICATION_TYPE":"U","NORAD_CAT_ID":66042,"ELEMENT_SET_NO":999,"REV_AT_EPOCH":1905,"BSTAR":7.6546e-5,"MEAN_MOTION_DOT":6.1e-7,"MEAN_MOTION_DDOT":0},{"OBJECT_NAME":"QIANFAN-101","OBJECT_ID":"2025-233L","EPOCH":"2026-03-04T02:16:36.800832","MEAN_MOTION":14.26732495,"ECCENTRICITY":0.0016751,"INCLINATION":88.9934,"RA_OF_ASC_NODE":52.63,"ARG_OF_PERICENTER":123.4133,"MEAN_ANOMALY":236.8666,"EPHEMERIS_TYPE":0,"CLASSIFICATION_TYPE":"U","NORAD_CAT_ID":66043,"ELEMENT_SET_NO":999,"REV_AT_EPOCH":1964,"BSTAR":0.00028358,"MEAN_MOTION_DOT":7.02e-6,"MEAN_MOTION_DDOT":0},{"OBJECT_NAME":"QIANFAN-102","OBJECT_ID":"2025-233M","EPOCH":"2026-03-04T03:46:29.360064","MEAN_MOTION":13.50992395,"ECCENTRICITY":0.0002084,"INCLINATION":88.9931,"RA_OF_ASC_NODE":53.7174,"ARG_OF_PERICENTER":88.7583,"MEAN_ANOMALY":271.3807,"EPHEMERIS_TYPE":0,"CLASSIFICATION_TYPE":"U","NORAD_CAT_ID":66044,"ELEMENT_SET_NO":999,"REV_AT_EPOCH":1905,"BSTAR":4.3489e-5,"MEAN_MOTION_DOT":4.0e-7,"MEAN_MOTION_DDOT":0}]
